{
    "CCSDS_OMM_VERS": "3.0",
    "COMMENT": "GENERATED VIA SPACE-TRACK.ORG API",
    "CREATION_DATE": "2025-05-23T14:36:33",
    "ORIGINATOR": "18 SPCS",
    "OBJECT_NAME": "NAVSTAR 68 (USA 242)",
    "OBJECT_ID": "2013-023A",
    "CENTER_NAME": "EARTH",
    "REF_FRAME": "TEME",
    "TIME_SYSTEM": "UTC",
    "MEAN_ELEMENT_THEORY": "SGP4",
    "EPOCH": "2025-05-22T19:07:53.104224",
    "MEAN_MOTION": "2.00561124",
    "ECCENTRICITY": "0.01332150",
    "INCLINATION": "54.8208",
    "RA_OF_ASC_NODE": "284.8490",
    "ARG_OF_PERICENTER": "47.9042",
    "MEAN_ANOMALY": "313.2005",
    "EPHEMERIS_TYPE": "0",
    "CLASSIFICATION_TYPE": "U",
    "NORAD_CAT_ID": "39166",
    "ELEMENT_SET_NO": "999",
    "REV_AT_EPOCH": "8803",
    "BSTAR": "0.00000000000000",
    "MEAN_MOTION_DOT": "-0.00000045",
    "MEAN_MOTION_DDOT": "0.0000000000000",
    "SEMIMAJOR_AXIS": "26560.567",
    "PERIOD": "717.986",
    "APOAPSIS": "20536.258",
    "PERIAPSIS": "19828.605",
    "OBJECT_TYPE": "PAYLOAD",
    "RCS_SIZE": "LARGE",
    "COUNTRY_CODE": "US",
    "LAUNCH_DATE": "2013-05-15",
    "SITE": "AFETR",
    "DECAY_DATE": null,
    "FILE": "4736959",
    "GP_ID": "288174326",
    "TLE_LINE0": "0 NAVSTAR 68 (USA 242)",
    "TLE_LINE1": "1 39166U 13023A   25142.79714241 -.00000045  00000-0  00000+0 0  9992",
    "TLE_LINE2": "2 39166  54.8208 284.8490 0133215  47.9042 313.2005  2.00561124 88034"
}